[{"OBJECT_NAME":"STARLINK-6276","OBJECT_ID":"2023-099AD","EPOCH":"2026-03-09T10:32:30.668640","MEAN_MOTION":15.02525983,"ECCENTRICITY":0.00014989,"INCLINATION":43.0015,"RA_OF_ASC_NODE":237.7576,"ARG_OF_PERICENTER":265.3402,"MEAN_ANOMALY":94.7269,"EPHEMERIS_TYPE":0,"CLASSIFICATION_TYPE":"U","NORAD_CAT_ID":57355,"ELEMENT_SET_NO":999,"REV_AT_EPOCH":14622,"BSTAR":0.00012402071,"MEAN_MOTION_DOT":1.472e-5,"MEAN_MOTION_DDOT":0},{"OBJECT_NAME":"KUIPER-00179","OBJECT_ID":"2025-301D","EPOCH":"2026-03-09T22:00:01.999584","MEAN_MOTION":15.06426136,"ECCENTRICITY":0.00027009,"INCLINATION":51.8878,"RA_OF_ASC_NODE":65.7875,"ARG_OF_PERICENTER":79.7828,"MEAN_ANOMALY":141.5104,"EPHEMERIS_TYPE":0,"CLASSIFICATION_TYPE":"U","NORAD_CAT_ID":67136,"ELEMENT_SET_NO":999,"REV_AT_EPOCH":537,"BSTAR":-0.078767589,"MEAN_MOTION_DOT":-0.01086026,"MEAN_MOTION_DDOT":0}]
